{
  "type": "FeatureCollection",
  "features": [
    {
      "type": "Feature",
      "properties": {
        "norad_id": 63632,
        "name": "SHENZHOU-20 (SZ-20)",
        "group": "stations",
        "lat": -31.322986856194944,
        "lon": -81.72924397027234,
        "alt_km": 395.9759894939398,
        "timestamp": "2025-12-06T11:28:09.809198+00:00",
        "meta_object_name": "SHENZHOU-20 (SZ-20)",
        "meta_object_id": "2025-082A",
        "meta_epoch": "2025-12-05T22:10:41.358720",
        "meta_mean_motion": 15.58760067,
        "meta_eccentricity": 0.00096689,
        "meta_inclination": 41.4683,
        "meta_ra_of_asc_node": 58.072,
        "meta_arg_of_pericenter": 337.6224,
        "meta_mean_anomaly": 22.4191,
        "meta_ephemeris_type": 0,
        "meta_classification_type": "U",
        "meta_norad_cat_id": 63632,
        "meta_element_set_no": 999,
        "meta_rev_at_epoch": 25530,
        "meta_bstar": 0.00039600638,
        "meta_mean_motion_dot": 0.00031271,
        "meta_mean_motion_ddot": 0,
        "tle_line1": "1 63632U 25082A   25339.92408980  .00031271  00000+0  39601-3 0  9994",
        "tle_line2": "2 63632  41.4683  58.0720 0009668 337.6224  22.4191 15.58760067255305"
      },
      "geometry": {
        "type": "Point",
        "coordinates": [
          -81.72924397027234,
          -31.322986856194944
        ]
      }
    },
    {
      "type": "Feature",
      "properties": {
        "norad_id": 64751,
        "name": "PROGRESS-MS 31",
        "group": "stations",
        "lat": -2.3682264425227575,
        "lon": 171.60320748808226,
        "alt_km": 421.62665654548164,
        "timestamp": "2025-12-06T11:28:09.809208+00:00",
        "meta_object_name": "PROGRESS-MS 31",
        "meta_object_id": "2025-146A",
        "meta_epoch": "2025-12-05T21:33:01.156320",
        "meta_mean_motion": 15.49346308,
        "meta_eccentricity": 0.00035522,
        "meta_inclination": 51.6298,
        "meta_ra_of_asc_node": 176.3533,
        "meta_arg_of_pericenter": 209.1564,
        "meta_mean_anomaly": 150.9226,
        "meta_ephemeris_type": 0,
        "meta_classification_type": "U",
        "meta_norad_cat_id": 64751,
        "meta_element_set_no": 999,
        "meta_rev_at_epoch": 675,
        "meta_bstar": 0.0002548829,
        "meta_mean_motion_dot": 0.00013789,
        "meta_mean_motion_ddot": 0,
        "tle_line1": "1 64751U 25146A   25339.89793005  .00013789  00000+0  25488-3 0  9991",
        "tle_line2": "2 64751  51.6298 176.3533 0003552 209.1564 150.9226 15.49346308  6752"
      },
      "geometry": {
        "type": "Point",
        "coordinates": [
          171.60320748808226,
          -2.3682264425227575
        ]
      }
    },
    {
      "type": "Feature",
      "properties": {
        "norad_id": 64786,
        "name": "TIANZHOU-9",
        "group": "stations",
        "lat": -31.322987510101058,
        "lon": -81.72924257150294,
        "alt_km": 395.9759893876271,
        "timestamp": "2025-12-06T11:28:09.809219+00:00",
        "meta_object_name": "TIANZHOU-9",
        "meta_object_id": "2025-149A",
        "meta_epoch": "2025-12-05T22:10:41.358720",
        "meta_mean_motion": 15.58760067,
        "meta_eccentricity": 0.00096689,
        "meta_inclination": 41.4683,
        "meta_ra_of_asc_node": 58.072,
        "meta_arg_of_pericenter": 337.6224,
        "meta_mean_anomaly": 22.4191,
        "meta_ephemeris_type": 0,
        "meta_classification_type": "U",
        "meta_norad_cat_id": 64786,
        "meta_element_set_no": 999,
        "meta_rev_at_epoch": 25530,
        "meta_bstar": 0.00039600638,
        "meta_mean_motion_dot": 0.00031271,
        "meta_mean_motion_ddot": 0,
        "tle_line1": "1 64786U 25149A   25339.92408980  .00031271  00000+0  39601-3 0  9999",
        "tle_line2": "2 64786  41.4683  58.0720 0009668 337.6224  22.4191 15.58760067255306"
      },
      "geometry": {
        "type": "Point",
        "coordinates": [
          -81.72924257150294,
          -31.322987510101058
        ]
      }
    },
    {
      "type": "Feature",
      "properties": {
        "norad_id": 65077,
        "name": "CREW DRAGON 11",
        "group": "stations",
        "lat": -2.3682254309413646,
        "lon": 171.60320829022416,
        "alt_km": 421.62665644887056,
        "timestamp": "2025-12-06T11:28:09.809228+00:00",
        "meta_object_name": "CREW DRAGON 11",
        "meta_object_id": "2025-166A",
        "meta_epoch": "2025-12-05T21:33:01.156320",
        "meta_mean_motion": 15.49346308,
        "meta_eccentricity": 0.00035522,
        "meta_inclination": 51.6298,
        "meta_ra_of_asc_node": 176.3533,
        "meta_arg_of_pericenter": 209.1564,
        "meta_mean_anomaly": 150.9226,
        "meta_ephemeris_type": 0,
        "meta_classification_type": "U",
        "meta_norad_cat_id": 65077,
        "meta_element_set_no": 999,
        "meta_rev_at_epoch": 214,
        "meta_bstar": 0.0002548829,
        "meta_mean_motion_dot": 0.00013789,
        "meta_mean_motion_ddot": 0,
        "tle_line1": "1 65077U 25166A   25339.89793005  .00013789  00000+0  25488-3 0  9995",
        "tle_line2": "2 65077  51.6298 176.3533 0003552 209.1564 150.9226 15.49346308  2143"
      },
      "geometry": {
        "type": "Point",
        "coordinates": [
          171.60320829022416,
          -2.3682254309413646
        ]
      }
    },
    {
      "type": "Feature",
      "properties": {
        "norad_id": 65304,
        "name": "DRAGON CRS-33",
        "group": "stations",
        "lat": -2.368224925151297,
        "lon": 171.6032086912946,
        "alt_km": 421.62665640056184,
        "timestamp": "2025-12-06T11:28:09.809238+00:00",
        "meta_object_name": "DRAGON CRS-33",
        "meta_object_id": "2025-186A",
        "meta_epoch": "2025-12-05T21:33:01.156320",
        "meta_mean_motion": 15.49346308,
        "meta_eccentricity": 0.00035522,
        "meta_inclination": 51.6298,
        "meta_ra_of_asc_node": 176.3533,
        "meta_arg_of_pericenter": 209.1564,
        "meta_mean_anomaly": 150.9226,
        "meta_ephemeris_type": 0,
        "meta_classification_type": "U",
        "meta_norad_cat_id": 65304,
        "meta_element_set_no": 999,
        "meta_rev_at_epoch": 11,
        "meta_bstar": 0.0002548829,
        "meta_mean_motion_dot": 0.00013789,
        "meta_mean_motion_ddot": 0,
        "tle_line1": "1 65304U 25186A   25339.89793005  .00013789  00000+0  25488-3 0  9990",
        "tle_line2": "2 65304  51.6298 176.3533 0003552 209.1564 150.9226 15.49346308   111"
      },
      "geometry": {
        "type": "Point",
        "coordinates": [
          171.6032086912946,
          -2.368224925151297
        ]
      }
    },
    {
      "type": "Feature",
      "properties": {
        "norad_id": 65586,
        "name": "PROGRESS-MS 32",
        "group": "stations",
        "lat": -2.36822441936061,
        "lon": 171.60320909236557,
        "alt_km": 421.62665635225494,
        "timestamp": "2025-12-06T11:28:09.809248+00:00",
        "meta_object_name": "PROGRESS-MS 32",
        "meta_object_id": "2025-204A",
        "meta_epoch": "2025-12-05T21:33:01.156320",
        "meta_mean_motion": 15.49346308,
        "meta_eccentricity": 0.00035522,
        "meta_inclination": 51.6298,
        "meta_ra_of_asc_node": 176.3533,
        "meta_arg_of_pericenter": 209.1564,
        "meta_mean_anomaly": 150.9226,
        "meta_ephemeris_type": 0,
        "meta_classification_type": "U",
        "meta_norad_cat_id": 65586,
        "meta_element_set_no": 999,
        "meta_rev_at_epoch": 27,
        "meta_bstar": 0.0002548829,
        "meta_mean_motion_dot": 0.00013789,
        "meta_mean_motion_ddot": 0,
        "tle_line1": "1 65586U 25204A   25339.89793005  .00013789  00000+0  25488-3 0  9993",
        "tle_line2": "2 65586  51.6298 176.3533 0003552 209.1564 150.9226 15.49346308   270"
      },
      "geometry": {
        "type": "Point",
        "coordinates": [
          171.60320909236557,
          -2.36822441936061
        ]
      }
    },
    {
      "type": "Feature",
      "properties": {
        "norad_id": 65616,
        "name": "CYGNUS NG-23",
        "group": "stations",
        "lat": -2.3682239135692664,
        "lon": 171.60320949343702,
        "alt_km": 421.62665630394713,
        "timestamp": "2025-12-06T11:28:09.809258+00:00",
        "meta_object_name": "CYGNUS NG-23",
        "meta_object_id": "2025-208A",
        "meta_epoch": "2025-12-05T21:33:01.156320",
        "meta_mean_motion": 15.49346308,
        "meta_eccentricity": 0.00035522,
        "meta_inclination": 51.6298,
        "meta_ra_of_asc_node": 176.3533,
        "meta_arg_of_pericenter": 209.1564,
        "meta_mean_anomaly": 150.9226,
        "meta_ephemeris_type": 0,
        "meta_classification_type": "U",
        "meta_norad_cat_id": 65616,
        "meta_element_set_no": 999,
        "meta_rev_at_epoch": 22,
        "meta_bstar": 0.0002548829,
        "meta_mean_motion_dot": 0.00013789,
        "meta_mean_motion_ddot": 0,
        "tle_line1": "1 65616U 25208A   25339.89793005  .00013789  00000+0  25488-3 0  9991",
        "tle_line2": "2 65616  51.6298 176.3533 0003552 209.1564 150.9226 15.49346308   229"
      },
      "geometry": {
        "type": "Point",
        "coordinates": [
          171.60320949343702,
          -2.3682239135692664
        ]
      }
    }
  ]
}